      2.10          N: GNSS NAV DATA                        RINEX VERSION / TYPE
fic2rin                                 09/11/2022 00:17:29 PGM / RUN BY / DATE
                                                            END OF HEADER
27 22  9 10 15 59 44.0  .212874263525D-03 -.375166564481D-11  .000000000000D+00
     .400000000000D+01 -.445000000000D+02  .411945730622D-08  .139674573024D+00
    -.228919088840D-05  .105738881975D-01  .119786709547D-04  .515366364670D+04
     .575984000000D+06  .726431608200D-07 -.323778339696D+00  .162050127983D-06
     .971208159221D+00  .157156250000D+03  .686944515436D+00 -.797997525514D-08
    -.525021869268D-09  .100000000000D+01  .222600000000D+04  .000000000000D+00
     .240000000000D+01  .000000000000D+00  .139698386192D-08  .400000000000D+01
     .572460000000D+06  .400000000000D+01
8  22  9 10 15 59 44.0 -.840658321977D-04 -.159161572810D-11  .000000000000D+00
     .000000000000D+00 -.575937500000D+02  .433018036939D-08  .126145461276D+00
    -.294111669064D-05  .749668618664D-02  .116638839245D-04  .515358938217D+04
     .575984000000D+06  .158324837685D-06 -.344916790575D+00 -.204890966415D-07
     .962401393847D+00  .154843750000D+03  .163499141916D+00 -.807712215884D-08
    -.521807449660D-09  .100000000000D+01  .222600000000D+04  .000000000000D+00
     .240000000000D+01  .000000000000D+00  .512227416039D-08  .000000000000D+00
     .572520000000D+06  .400000000000D+01
8  22  9 10 17 59 44.0 -.840774737298D-04 -.159161572810D-11  .000000000000D+00
     .130000000000D+02 -.523750000000D+02  .424231956678D-08  .117633490718D+01
    -.263750553131D-05  .749734975398D-02  .115744769573D-04  .515359073639D+04
     .583184000000D+06  .931322574615D-08 -.344973680533D+00  .113621354103D-06
     .962397676572D+00  .156875000000D+03  .163539388255D+00 -.794247369305D-08
    -.635383609135D-09  .100000000000D+01  .222600000000D+04  .000000000000D+00
     .240000000000D+01  .000000000000D+00  .512227416039D-08  .130000000000D+02
     .576000000000D+06  .400000000000D+01
27 22  9 10 17 59 44.0  .212847255170D-03 -.375166564481D-11  .000000000000D+00
     .500000000000D+01 -.450625000000D+02  .409374194936D-08  .118991813227D+01
    -.237114727497D-05  .105733223027D-01  .115837901831D-04  .515366206551D+04
     .583184000000D+06 -.707805156708D-07 -.323834986810D+00  .968575477600D-07
     .971204001608D+00  .163406250000D+03  .686884973208D+00 -.792925885689D-08
    -.630740558590D-09  .100000000000D+01  .222600000000D+04  .000000000000D+00
     .240000000000D+01  .000000000000D+00  .139698386192D-08  .500000000000D+01
     .576000000000D+06  .400000000000D+01
2  22  9 10 18  0  0.0 -.646480824798D-03  .125055521494D-11  .000000000000D+00
     .510000000000D+02  .102125000000D+03  .418267422517D-08 -.141354588000D+01
     .566616654396D-05  .199670029106D-01  .110045075417D-04  .515489584732D+04
     .583200000000D+06 -.262632966042D-06  .645522677593D+00  .426545739174D-06
     .966618972040D+00  .177656250000D+03 -.139475373906D+01 -.801926260590D-08
     .466090843126D-09  .100000000000D+01  .222600000000D+04  .000000000000D+00
     .240000000000D+01  .000000000000D+00 -.172294676304D-07  .510000000000D+02
     .576000000000D+06  .400000000000D+01
1  22  9 10 18  0  0.0  .286249909550D-03 -.659383658785D-11  .000000000000D+00
     .480000000000D+02  .113968750000D+03  .381301597028D-08 -.106209772342D+01
     .615417957306D-05  .120074008591D-01  .102631747723D-04  .515366308784D+04
     .583200000000D+06  .219792127609D-06  .739021127973D+00  .219792127609D-06
     .988608418457D+00  .196968750000D+03  .944314092689D+00 -.787211361942D-08
     .565023535498D-09  .100000000000D+01  .222600000000D+04  .000000000000D+00
     .240000000000D+01  .000000000000D+00  .512227416039D-08  .480000000000D+02
     .576000000000D+06  .400000000000D+01
3  22  9 10 18  0  0.0 -.348736532032D-03 -.648014975013D-11  .000000000000D+00
     .230000000000D+02 -.900000000000D+01  .489163232755D-08 -.216959211211D+01
    -.460073351860D-06  .449876114726D-02  .151805579662D-05  .515355046844D+04
     .583200000000D+06  .540167093277D-07  .177225709568D+01  .111758708954D-07
     .974902448692D+00  .357281250000D+03  .105478983465D+01 -.852964100807D-08
     .100718481043D-09  .100000000000D+01  .222600000000D+04  .000000000000D+00
     .240000000000D+01  .000000000000D+00  .186264514923D-08  .230000000000D+02
     .576000000000D+06  .400000000000D+01
10 22  9 10 18  0  0.0 -.270828604698D-05 -.170530256582D-11  .000000000000D+00
     .700000000000D+01 -.104062500000D+02  .474769776067D-08 -.305053270771D+01
    -.540167093277D-06  .788731058128D-02  .190734863281D-05  .515367783737D+04
     .583200000000D+06 -.279396772385D-07  .176954421358D+01 -.149011611938D-06
     .974687251979D+00  .353406250000D+03 -.251175704259D+01 -.832641825731D-08
     .339299847486D-10  .100000000000D+01  .222600000000D+04  .000000000000D+00
     .240000000000D+01  .000000000000D+00  .232830643654D-08  .700000000000D+01
     .576000000000D+06  .400000000000D+01
5  22  9 10 18  0  0.0 -.961734913290D-04 -.147792889038D-11  .000000000000D+00
     .117000000000D+03  .800000000000D+01  .516878672929D-08  .147432607830D+01
     .396743416786D-06  .611559255049D-02  .183098018169D-05  .515377630424D+04
     .583200000000D+06 -.152736902237D-06  .172909800604D+01  .745058059692D-08
     .961917672669D+00  .346531250000D+03  .110841589395D+01 -.868536178018D-08
     .107504477993D-09  .100000000000D+01  .222600000000D+04  .000000000000D+00
     .240000000000D+01  .000000000000D+00 -.111758708954D-07  .117000000000D+03
     .576000000000D+06  .400000000000D+01
7  22  9 10 18  0  0.0  .308599323034D-03 -.295585778076D-11  .000000000000D+00
     .106000000000D+03  .659375000000D+02  .459626288137D-08 -.169307331333D+01
     .328943133354D-05  .163949264679D-01  .110939145088D-04  .515364184761D+04
     .583200000000D+06  .339001417160D-06 -.241267433839D+01 -.121071934700D-06
     .950859230601D+00  .157906250000D+03 -.224344490833D+01 -.788532845558D-08
     .583595737676D-09  .100000000000D+01  .222600000000D+04  .000000000000D+00
     .240000000000D+01  .000000000000D+00 -.111758708954D-07  .106000000000D+03
     .576000000000D+06  .400000000000D+01
6  22  9 10 18  0  0.0  .456365756691D-03  .127329258248D-10  .000000000000D+00
     .730000000000D+02  .106437500000D+03  .380122976505D-08 -.819564312315D+00
     .530108809471D-05  .246795150451D-02  .107493251562D-04  .515379880333D+04
     .583200000000D+06 -.186264514923D-07  .730748128741D+00 -.409781932831D-07
     .987919783419D+00  .187562500000D+03 -.913305302809D+00 -.778425281680D-08
     .568595112840D-09  .100000000000D+01  .222600000000D+04  .000000000000D+00
     .240000000000D+01  .000000000000D+00  .372529029846D-08  .730000000000D+02
     .576000000000D+06  .400000000000D+01
4  22  9 10 18  0  0.0 -.120671000332D-03  .557065504836D-11  .000000000000D+00
     .148000000000D+03 -.104750000000D+03  .442161274935D-08  .844730047929D+00
    -.544078648090D-05  .200542609673D-02  .113658607006D-04  .515376506233D+04
     .583200000000D+06  .260770320892D-07  .285391221395D+01 -.502914190292D-07
     .962167537614D+00  .156750000000D+03 -.308592879037D+01 -.808283668259D-08
    -.500735143343D-09  .100000000000D+01  .222600000000D+04  .000000000000D+00
     .240000000000D+01  .000000000000D+00 -.465661287308D-08  .404000000000D+03
     .576000000000D+06  .400000000000D+01
16 22  9 10 18  0  0.0 -.523714348674D-03 -.113686837722D-11  .000000000000D+00
     .470000000000D+02 -.216250000000D+02  .485377360772D-08  .210848718549D+01
    -.134482979774D-05  .127641733270D-01  .379979610443D-05  .515369865799D+04
     .583200000000D+06 -.214204192162D-06 -.127998012664D+01 -.175088644028D-06
     .967432647076D+00  .314125000000D+03  .732577374674D+00 -.836856286995D-08
    -.226438003480D-09  .100000000000D+01  .222600000000D+04  .000000000000D+00
     .240000000000D+01  .000000000000D+00 -.102445483208D-07  .470000000000D+02
     .576000000000D+06  .400000000000D+01
12 22  9 10 18  0  0.0 -.276233069599D-03 -.602540239925D-11  .000000000000D+00
     .300000000000D+02 -.159375000000D+02  .477127017113D-08 -.238999369976D+01
    -.718981027603D-06  .849885120988D-02  .332668423653D-05  .515373400879D+04
     .583200000000D+06  .106170773506D-06 -.129845948546D+01 -.223517417908D-07
     .967593755318D+00  .319531250000D+03  .131624985813D+01 -.822927135361D-08
    -.122862260563D-09  .100000000000D+01  .222600000000D+04  .000000000000D+00
     .240000000000D+01  .000000000000D+00 -.125728547573D-07  .300000000000D+02
     .576000000000D+06  .400000000000D+01
9  22  9 10 18  0  0.0 -.297735910863D-03  .466116034659D-11  .000000000000D+00
     .700000000000D+02 -.118718750000D+03  .459197698856D-08  .161956232646D+01
    -.625662505627D-05  .246404879726D-02  .109039247036D-04  .515376961708D+04
     .583200000000D+06  .372529029846D-07  .279931493797D+01 -.614672899246D-07
     .955246596529D+00  .163125000000D+03  .190713072559D+01 -.812819571483D-08
    -.500735143343D-09  .100000000000D+01  .222600000000D+04  .000000000000D+00
     .240000000000D+01  .000000000000D+00  .139698386192D-08  .700000000000D+02
     .576000000000D+06  .400000000000D+01
11 22  9 10 18  0  0.0 -.155884772539D-04 -.261479726760D-11  .000000000000D+00
     .260000000000D+02  .101812500000D+03  .442839874630D-08  .940853975442D+00
     .526942312717D-05  .713129527867D-03  .977888703346D-05  .515363459969D+04
     .583200000000D+06 -.186264514923D-08  .777950644950D+00 -.204890966415D-07
     .963825993713D+00  .195187500000D+03  .308121735590D+01 -.805140680198D-08
     .534307970357D-09  .100000000000D+01  .222600000000D+04  .000000000000D+00
     .240000000000D+01  .000000000000D+00 -.838190317154D-08  .794000000000D+03
     .576000000000D+06  .400000000000D+01
